{"fetched_at":"2026-03-29T02:12:04Z","count":15717,"tles":[{"name":"BEIDOU-3S M2S (C58)","line1":"1 40748U 15037A   26085.63312230 -.00000031  00000+0  00000+0 0  9993","line2":"2 40748  54.9430 304.8894 0008162 277.0076  82.9375  1.86231913 72582","category":"GPS"}]}